{"type":"FeatureCollection","licence":"Data © OpenStreetMap contributors, ODbL 1.0. http://osm.org/copyright","source":"OpenStreetMap/Nominatim lookup for OSM relations R1029256 and R1216601, fetched 2026-05-26; simplified and filtered 2026-06-12 to exclude Kaliningrad and island components from B2E mainland coverage","features":[{"type":"Feature","properties":{"name":"Центральный федеральный округ","osm_type":"relation","osm_id":1029256,"type":"administrative","source_relation":"https://www.openstreetmap.org/relation/1029256","coverage_note":"mainland simplified outline"},"geometry":{"type":"MultiPolygon","coordinates":[[[[30.728387,56.780766],[30.834839,56.755035],[30.775633,56.733913],[30.88786,56.645172],[31.058969,56.654801],[30.987103,56.485795],[31.212602,56.427222],[31.228535,56.339796],[31.51786,56.306089],[31.462663,56.253783],[31.507607,56.158126],[31.449394,56.133385],[31.508392,56.049363],[31.349517,55.94496],[31.489142,55.707138],[31.038061,55.760841],[31.06056,55.698767],[30.928006,55.641813],[30.95501,55.54241],[30.9139,55.52207],[30.95862,55.49709],[30.893033,55.476368],[30.93355,55.39581],[30.81983,55.282],[30.985332,55.171782],[31.027888,55.062308],[30.908418,55.018285],[30.943755,54.958466],[30.81871,54.94022],[30.75271,54.80744],[31.012134,54.717067],[30.991273,54.672228],[31.197829,54.65904],[31.085659,54.508504],[31.235621,54.465084],[31.32272,54.340587],[31.2858,54.31967],[31.31782,54.24414],[31.67573,54.10329],[31.774293,54.112755],[31.753363,54.078444],[31.898021,54.083216],[31.853966,54.005657],[31.891877,53.966189],[31.761219,53.796162],[32.118528,53.821062],[32.369175,53.717399],[32.460683,53.737653],[32.498951,53.681135],[32.413898,53.650663],[32.477916,53.54888],[32.75711,53.45818],[32.7335,53.33253],[32.48846,53.30352],[32.448315,53.208254],[32.236073,53.099169],[31.934674,53.083064],[31.628458,53.231232],[31.40184,53.21185],[31.3912,53.096492],[31.242258,53.032324],[31.589628,52.791369],[31.592854,52.734477],[31.49779,52.695225],[31.563952,52.594278],[31.673623,52.561145],[31.558811,52.518085],[31.625044,52.491931],[31.580782,52.45714],[31.625388,52.331513],[31.580744,52.328409],[31.71396,52.265158],[31.688264,52.194464],[31.78104,52.18557],[31.781731,52.111999],[31.960631,52.074638],[31.916576,52.04225],[32.199418,52.066093],[32.367903,52.146496],[32.323826,52.151584],[32.324395,52.223728],[32.401671,52.247793],[32.376598,52.337569],[32.900979,52.24527],[33.188661,52.379528],[33.509321,52.358015],[33.479066,52.316429],[33.559873,52.302255],[33.836472,52.361389],[34.11651,52.141044],[34.062284,52.072948],[34.096743,52.004849],[34.415588,51.825699],[34.422853,51.722327],[34.080362,51.666279],[34.307587,51.519417],[34.220945,51.417016],[34.338664,51.356082],[34.230483,51.265097],[34.662643,51.247442],[34.716542,51.171421],[35.150266,51.22342],[35.147616,51.082636],[35.408882,51.043387],[35.322818,51.01367],[35.325763,50.946825],[35.400073,50.914146],[35.411406,50.802563],[35.488713,50.776804],[35.459458,50.68925],[35.496185,50.678872],[35.392902,50.650004],[35.390464,50.580005],[35.569275,50.464912],[35.626489,50.351981],[36.068262,50.451111],[36.16064,50.43154],[36.295705,50.29179],[36.433453,50.330638],[36.647948,50.217656],[36.870008,50.336154],[37.4904,50.457395],[37.472185,50.368376],[37.635743,50.310812],[37.640308,50.176037],[37.75549,50.078708],[37.925447,50.034631],[38.032935,49.900395],[38.221812,49.979189],[38.178774,50.079928],[38.313148,50.088449],[38.349848,50.006984],[38.488796,49.96374],[38.647106,49.955986],[38.687094,50.007097],[38.694066,49.934799],[38.901303,49.869387],[38.930239,49.796908],[39.179918,49.888719],[39.285587,49.755181],[39.610682,49.733643],[39.658709,49.616072],[39.806409,49.558126],[40.16067,49.643123],[40.535801,49.577837],[40.636967,49.672992],[40.921005,49.700488],[41.04079,49.799562],[41.083709,49.945213],[41.38435,50.081111],[41.288934,50.16324],[41.400995,50.202806],[41.522177,50.362572],[41.420479,50.498893],[41.539097,50.574382],[41.168874,50.776314],[41.420534,50.832276],[41.472753,50.951342],[41.77438,51.016145],[41.928097,51.194125],[42.174743,51.135876],[42.553001,51.144735],[42.708392,51.247608],[42.947337,51.26722],[42.75045,51.492412],[42.566125,51.538044],[42.504041,51.665184],[42.667717,51.80689],[42.713197,51.996037],[42.813583,52.022217],[42.756828,52.085479],[42.7719,52.184973],[42.888845,52.21206],[42.920796,52.360329],[43.08133,52.404693],[43.024243,52.487403],[43.122901,52.511414],[43.058242,52.559391],[43.248087,52.63634],[42.952621,52.933564],[42.627415,53.127872],[42.547553,53.12236],[42.509028,53.17019],[42.571364,53.179832],[42.420968,53.271701],[42.412166,53.33802],[42.236842,53.359372],[42.320426,53.429745],[42.14077,53.498697],[42.171746,53.532993],[42.109533,53.51534],[42.143951,53.712079],[42.081739,53.748005],[42.154048,53.77081],[42.137557,53.822484],[42.350969,53.853729],[42.444895,53.942486],[42.442293,53.999264],[42.283734,54.104954],[42.451828,54.122406],[42.498116,54.070115],[42.572304,54.083419],[42.520952,54.134721],[42.575232,54.164731],[42.689074,54.129278],[42.434502,54.257112],[42.344323,54.159186],[42.242107,54.162793],[42.164255,54.258241],[42.301232,54.226275],[42.529632,54.370218],[42.629198,54.376007],[42.535772,54.436762],[42.549926,54.485274],[42.631414,54.493109],[42.606736,54.561043],[42.691248,54.580507],[42.597521,54.635571],[42.642817,54.671453],[42.603833,54.699602],[42.413124,54.705972],[42.3891,54.830207],[42.442326,54.825399],[42.49442,54.907707],[42.445453,54.964653],[42.48549,55.009355],[42.060772,54.977663],[41.998344,54.995338],[41.999483,55.098083],[41.862491,55.05721],[41.776477,55.098644],[41.908336,55.210282],[41.860528,55.24111],[41.972521,55.286605],[41.942443,55.34413],[42.002209,55.325096],[42.059154,55.416531],[42.166871,55.443995],[42.08547,55.496374],[42.06483,55.587369],[42.14424,55.622168],[42.128784,55.678353],[42.396711,55.789958],[42.530684,55.954372],[42.718545,55.96922],[42.671306,56.089255],[42.966919,56.145462],[42.912628,56.208799],[42.757138,56.195603],[42.775408,56.330262],[42.606259,56.409751],[42.678056,56.441325],[42.649752,56.468642],[42.901358,56.469852],[42.901043,56.515726],[42.821134,56.515931],[42.92491,56.569364],[42.927336,56.634938],[42.797447,56.691727],[42.870814,56.809429],[43.105279,56.82923],[43.152336,56.879027],[43.300596,56.820831],[43.086268,57.147873],[43.323361,57.414145],[43.306882,57.482557],[43.509314,57.605414],[43.853394,57.417485],[44.365285,57.528337],[44.578823,57.693655],[44.766505,57.712414],[44.880783,57.881924],[44.800976,57.959861],[44.869006,58.076712],[45.223571,58.088666],[45.293524,58.032057],[45.50891,58.028512],[45.508883,57.976074],[45.613769,57.918751],[45.809514,58.043757],[46.34493,58.062218],[46.335236,58.165583],[46.416212,58.214995],[46.385378,58.286217],[46.441276,58.346737],[46.395691,58.37502],[46.579335,58.399094],[46.558368,58.488111],[46.658063,58.588497],[47.017877,58.618604],[47.009203,58.718388],[47.11116,58.780974],[47.316774,58.797065],[47.249268,58.869416],[47.293133,58.921992],[47.639515,58.916855],[47.527282,59.030644],[47.552276,59.056821],[47.444002,59.093717],[47.478533,59.15915],[47.368364,59.133551],[47.209394,59.201214],[47.247709,59.352628],[47.048947,59.369321],[47.117822,59.598969],[46.79716,59.623604],[46.408911,59.618645],[46.368871,59.342484],[46.020292,59.323947],[45.979028,59.171649],[45.340468,59.216042],[45.056263,59.198298],[45.039644,59.121812],[44.352629,59.132541],[44.190221,59.17012],[44.171108,59.237329],[43.94817,59.208092],[43.758245,59.26928],[43.534962,59.1785],[43.505078,59.305362],[43.33743,59.266158],[43.382571,59.204406],[43.143818,59.292548],[43.140847,59.249146],[42.866532,59.161173],[42.692399,59.223503],[42.636381,59.328185],[42.279223,59.261538],[42.202767,59.327548],[42.216254,59.408483],[42.034863,59.429549],[41.9622,59.281708],[41.893943,59.293006],[42.098663,59.24982],[42.057448,59.122895],[41.906841,59.07355],[41.72852,59.110905],[41.349027,58.951944],[41.268229,58.992002],[41.171624,58.931558],[41.271108,58.88693],[41.155885,58.803086],[41.230057,58.741045],[41.165365,58.656949],[40.997627,58.584299],[40.682284,58.593829],[40.469409,58.538229],[40.088303,58.595198],[40.130228,58.642746],[40.048492,58.656204],[40.020075,58.741223],[39.870958,58.752406],[39.793261,58.837057],[39.71973,58.820439],[39.59949,58.902208],[39.24252,58.894933],[39.124125,58.95099],[38.948762,58.943357],[38.926217,58.896967],[39.036062,58.855655],[38.920088,58.807158],[38.923263,58.733331],[38.557291,58.772827],[38.486223,58.699614],[38.064554,58.730111],[37.896818,58.611319],[37.712146,58.625677],[37.719619,58.547293],[37.628047,58.483095],[37.284265,58.648064],[37.319697,58.695834],[37.23392,58.714688],[37.18322,58.826327],[36.847864,58.836168],[36.76215,58.796655],[36.810425,58.723997],[36.66368,58.701749],[36.630504,58.619255],[36.507854,58.580589],[36.543755,58.559709],[36.503051,58.515479],[36.102447,58.504954],[35.916309,58.42043],[35.644882,58.46017],[35.303937,58.409769],[35.24731,58.383571],[35.257168,58.274199],[35.11844,58.212465],[34.793484,58.245972],[34.689496,58.200132],[34.736603,58.172142],[34.671645,58.07347],[34.180694,58.212755],[33.998275,58.213395],[33.802965,58.137807],[33.705874,58.170305],[33.528993,58.058091],[33.692728,57.990429],[33.681891,57.899991],[33.547352,57.851164],[33.593119,57.727618],[33.306631,57.648529],[33.318587,57.583298],[33.231411,57.53537],[33.264033,57.42192],[32.78858,57.467192],[32.377129,57.224649],[32.236373,57.255114],[32.250349,57.202556],[32.103401,57.186714],[31.926682,57.080233],[31.880087,57.130835],[31.755728,57.114047],[31.647391,57.026185],[31.696008,56.990062],[31.390856,56.909067],[31.298762,56.955736],[31.100948,56.930977],[31.004929,56.986641],[30.935447,56.865715],[30.879827,56.885764],[30.876554,56.806464],[30.728387,56.780766]]]]}},{"type":"Feature","properties":{"name":"Северо-Западный федеральный округ","osm_type":"relation","osm_id":1216601,"type":"administrative","source_relation":"https://www.openstreetmap.org/relation/1216601","coverage_note":"mainland only; Kaliningrad and islands excluded"},"geometry":{"type":"MultiPolygon","coordinates":[[[[26.44,59.938333],[26.816683,59.662417],[27.3853,59.652433],[28.208569,59.383744],[28.132677,59.292378],[27.904331,59.241265],[27.738327,58.977775],[27.35704,58.787261],[27.55319,58.366184],[27.491262,58.224368],[27.635985,58.099936],[27.678894,57.923703],[27.819104,57.890536],[27.77632,57.833464],[27.549218,57.833348],[27.494324,57.788902],[27.525553,57.709331],[27.411089,57.700476],[27.404757,57.612574],[27.31748,57.580001],[27.351565,57.518208],[27.55639,57.537814],[27.515921,57.424477],[27.86666,57.296341],[27.818399,57.14348],[27.715216,57.097624],[27.768777,57.085613],[27.714651,57.007379],[27.769565,57.00524],[27.659344,56.834345],[27.968904,56.835882],[27.898571,56.752172],[28.143573,56.571817],[28.094698,56.511083],[28.192626,56.448784],[28.163166,56.379556],[28.241494,56.278658],[28.157419,56.143574],[28.320564,56.058121],[28.378256,56.111158],[28.681272,56.104634],[28.636204,56.074558],[28.734076,55.966768],[29.088155,56.034096],[29.422613,55.968931],[29.479532,55.918126],[29.394335,55.90224],[29.358618,55.767973],[29.515286,55.701576],[29.894984,55.86268],[30.277085,55.870136],[30.511727,55.799314],[30.780124,55.588303],[31.06056,55.698767],[31.038061,55.760841],[31.489142,55.707138],[31.349517,55.94496],[31.508392,56.049363],[31.449394,56.133385],[31.51786,56.306089],[31.228535,56.339796],[31.212602,56.427222],[30.987103,56.485795],[31.058969,56.654801],[30.88786,56.645172],[30.775633,56.733913],[30.834839,56.755035],[30.728387,56.780766],[30.876554,56.806464],[31.004929,56.986641],[31.390856,56.909067],[31.696008,56.990062],[31.647391,57.026185],[31.755728,57.114047],[31.926682,57.080233],[32.250349,57.202556],[32.236373,57.255114],[32.377129,57.224649],[32.78858,57.467192],[33.264033,57.42192],[33.231411,57.53537],[33.318587,57.583298],[33.306631,57.648529],[33.593119,57.727618],[33.547352,57.851164],[33.681891,57.899991],[33.692728,57.990429],[33.528993,58.058091],[33.705874,58.170305],[34.180694,58.212755],[34.671645,58.07347],[34.736603,58.172142],[34.689496,58.200132],[35.11844,58.212465],[35.257168,58.274199],[35.303937,58.409769],[36.503051,58.515479],[36.66368,58.701749],[36.829193,58.742107],[36.765447,58.800944],[37.070959,58.863139],[37.319697,58.695834],[37.284265,58.648064],[37.628047,58.483095],[37.719619,58.547293],[37.712146,58.625677],[37.896818,58.611319],[38.064554,58.730111],[38.923263,58.733331],[38.920088,58.807158],[39.036062,58.855655],[38.926217,58.896967],[38.989808,58.956012],[39.604377,58.900614],[40.020075,58.741223],[40.130228,58.642746],[40.080868,58.602737],[40.204002,58.549259],[40.958024,58.578124],[41.220664,58.713326],[41.155885,58.803086],[41.271108,58.88693],[41.181711,58.895404],[41.190006,58.956026],[41.349027,58.951944],[41.72852,59.110905],[42.057448,59.122895],[42.098663,59.24982],[41.893943,59.293006],[41.9622,59.281708],[42.034863,59.429549],[42.216254,59.408483],[42.279223,59.261538],[42.636381,59.328185],[42.692399,59.223503],[42.866532,59.161173],[43.143818,59.292548],[43.382571,59.204406],[43.33743,59.266158],[43.505078,59.305362],[43.534962,59.1785],[43.775239,59.268426],[43.94817,59.208092],[44.171108,59.237329],[44.190221,59.17012],[44.352629,59.132541],[45.039644,59.121812],[45.056263,59.198298],[45.340468,59.216042],[45.979028,59.171649],[46.020292,59.323947],[46.368871,59.342484],[46.408911,59.618645],[47.117822,59.598969],[47.152878,59.752233],[46.922349,59.765497],[47.034772,60.126381],[46.778834,60.041049],[46.598308,60.064513],[46.352685,60.110449],[46.340821,60.207303],[46.263784,60.237154],[46.763025,60.233679],[46.843537,60.358231],[46.758457,60.364781],[46.871727,60.414204],[46.873836,60.513505],[47.038023,60.544604],[46.960859,60.655459],[47.19318,61.067393],[47.897198,61.016821],[47.96653,60.879171],[48.419677,60.837206],[48.560666,60.551513],[48.496136,60.472218],[48.632908,60.423506],[48.530512,60.400429],[48.785089,60.352692],[48.492226,60.195156],[48.523224,59.706844],[49.101547,59.661699],[49.039664,59.482398],[49.571821,59.393145],[49.521869,59.216969],[49.8174,59.210535],[49.859414,59.655265],[50.084932,59.680315],[49.991028,59.779092],[50.270358,59.747937],[50.402734,59.839064],[50.831023,59.863324],[51.047665,60.031904],[51.179066,60.048892],[51.467194,59.915573],[51.973869,60.279334],[52.317417,60.227461],[52.352251,60.437479],[52.123716,60.464581],[52.152814,60.541242],[51.772377,60.580038],[51.892312,60.881543],[52.361145,60.830191],[52.431433,60.976416],[52.806464,60.937746],[52.870744,61.090149],[53.413588,61.033485],[53.355153,60.882661],[53.663977,60.84712],[53.813824,60.831604],[53.875831,60.982651],[54.976851,60.859908],[55.05005,61.009161],[55.199961,60.991563],[55.275878,61.148713],[55.731499,61.095603],[55.813087,61.246778],[56.274501,61.191858],[56.37827,61.443122],[56.566341,61.418999],[56.653124,61.5243],[58.845858,61.495859],[59.348927,61.663234],[59.42219,61.754598],[59.325909,61.783388],[59.32803,61.843348],[59.489022,61.946615],[59.399401,62.157112],[59.614206,62.374869],[59.635447,62.548454],[59.442953,62.565473],[59.358958,62.750549],[59.433324,62.778261],[59.462157,62.898072],[59.203794,63.027597],[59.322729,63.123803],[59.287023,63.183193],[59.373906,63.369468],[59.31083,63.387493],[59.471299,63.5528],[59.561302,63.908559],[59.836947,64.087144],[59.558743,64.243126],[59.645359,64.447183],[59.464282,64.495798],[59.618335,64.649917],[59.751588,64.667875],[59.625835,64.724431],[59.624632,64.803266],[60.21181,65.078554],[60.420103,65.065679],[60.618781,64.918553],[60.73882,64.930471],[60.807603,65.024967],[60.946262,65.013068],[61.107646,65.162295],[61.28627,65.172494],[61.364979,65.250371],[61.298457,65.327348],[61.858602,65.686944],[62.826238,65.868164],[62.77538,65.903169],[62.904436,65.965945],[62.792307,66.000908],[63.109482,66.247982],[63.278412,66.219457],[63.229665,66.330948],[63.418482,66.466617],[65.139159,66.907727],[65.081782,67.039776],[65.244671,67.092926],[65.181366,67.150023],[65.746773,67.333938],[65.698554,67.380796],[66.010179,67.409108],[66.092487,67.493126],[66.050009,67.580208],[65.820773,67.539421],[65.786376,67.642616],[66.161257,67.649424],[66.251686,67.733913],[66.023006,67.807482],[66.133489,67.914221],[66.07661,67.938814],[65.354903,67.952395],[65.274676,68.234566],[65.670455,68.564179],[65.436069,68.646778],[65.448928,68.73369],[65.351219,68.72863],[65.399996,68.791903],[64.788541,68.893577],[64.557261,68.867616],[64.628733,68.948163],[64.519241,68.97709],[64.539609,69.029281],[65.077134,69.235888],[65.13181,69.338696],[64.965044,69.563919],[63.341799,69.867051],[61.65239,70],[58.017127,70],[58.668556,69.715343],[59.660892,69.469585],[60.081232,69.191266],[60.132962,69.053743],[60.311147,68.958406],[60.230213,68.899034],[60.075161,68.960665],[60.042274,69.082214],[59.678199,69.378361],[58.875476,69.644261],[58.396154,69.67778],[58.021015,69.596171],[57.908819,69.426388],[58.518464,69.138009],[57.629564,68.967664],[57.218115,68.92926],[54.721843,69.183292],[53.834824,69.162414],[53.140473,69.065411],[51.734913,68.704927],[50.754982,68.637737],[49.020413,68.051587],[48.619356,68.11372],[47.111292,68.032987],[46.851092,68.426646],[46.364708,68.58712],[45.374166,68.73544],[44.187955,68.735204],[43.492441,68.867359],[39.759706,68.374572],[38.776924,68.564497],[38.13896,68.846633],[36.588816,69.265874],[36.020213,69.389818],[34.274618,69.580295],[33.461237,69.894422],[32.956881,70],[31.162498,70],[30.817641,69.794844],[30.94444,69.683184],[30.938879,69.560999],[30.515981,69.540421],[30.085292,69.658097],[30.185599,69.550572],[30.034529,69.424679],[29.292341,69.297932],[29.242137,69.113019],[29.056654,69.015225],[28.929294,69.051915],[28.415789,68.915451],[28.800778,68.86929],[28.433932,68.539671],[28.646135,68.196302],[29.327094,68.074539],[29.659415,67.802957],[30.017062,67.673537],[29.930225,67.522525],[29.522455,67.309838],[29.033167,66.925521],[29.105856,66.790447],[29.923306,66.127145],[30.119367,65.752194],[30.138466,65.668676],[29.721864,65.637085],[29.863909,65.560441],[29.733051,65.472499],[29.746577,65.347417],[29.601789,65.259934],[29.885668,65.206297],[29.819345,65.144277],[29.896865,65.10514],[29.62697,65.060599],[29.611037,64.927327],[29.739631,64.789783],[30.08651,64.773986],[30.041398,64.741186],[30.130115,64.634733],[29.989401,64.587621],[30.044893,64.402012],[30.48244,64.262338],[30.55358,64.101682],[30.260416,63.822003],[29.97189,63.757168],[30.483994,63.466696],[31.237531,63.21922],[31.272119,63.107626],[31.586707,62.908709],[31.162814,62.446076],[30.65705,62.208913],[29.7406,61.575768],[29.496241,61.491902],[29.244829,61.27069],[28.819101,61.121575],[28.655002,60.9495],[28.524607,60.957106],[27.873426,60.604553],[27.68692,60.433571],[27.725775,60.391677],[27.456654,60.223259],[26.907178,60.136733],[26.66147,59.981272],[26.44,59.938333]]]]}}]}
